start=new Date('2023-04-15T00:00:00.000Z').valueOf();
sats=[{"TIME_SYSTEM":"UTC","REF_FRAME":"TEME","OBJECT_ID":"2022-084AE","LAUNCH_DATE":"2022-07-22","BSTAR":"0.00003180100000","MEAN_MOTION_DOT":"0.00000350","COUNTRY_CODE":"US","CLASSIFICATION_TYPE":"U","MEAN_ANOMALY":"227.0086","INCLINATION":"97.6577","SITE":"AFWTR","ECCENTRICITY":"0.00009740","RA_OF_ASC_NODE":"166.8752","TLE_LINE1":"1 53217U 22084AE  23104.89750547  .00000350  00000-0  31801-4 0  9994","SEMIMAJOR_AXIS":"6941.131","OBJECT_NAME":"STARLINK-4379","ARG_OF_PERICENTER":"133.1220","PERIOD":"95.919","APOAPSIS":"563.672","REV_AT_EPOCH":"4069","MEAN_MOTION":"15.01265134","OBJECT_TYPE":"PAYLOAD","DECAY_DATE":null,"FILE":"3887502","GP_ID":"230065634","CENTER_NAME":"EARTH","TLE_LINE2":"2 53217  97.6577 166.8752 0000974 133.1220 227.0086 15.01265134 40690","MEAN_MOTION_DDOT":"0.0000000000000","NORAD_CAT_ID":"53217","EPOCH":"2023-04-14T21:32:24.472608","EPHEMERIS_TYPE":"0","PERIAPSIS":"562.320","ELEMENT_SET_NO":"999","MEAN_ELEMENT_THEORY":"SGP4","RCS_SIZE":"LARGE"},{"TLE_LINE2":"2 53218  97.6540 166.1646 0001759 103.6264 256.5156 15.01265787 40721","CENTER_NAME":"EARTH","GP_ID":"230058574","FILE":"3887333","DECAY_DATE":null,"MEAN_MOTION":"15.01265787","OBJECT_TYPE":"PAYLOAD","REV_AT_EPOCH":"4072","RCS_SIZE":"LARGE","MEAN_ELEMENT_THEORY":"SGP4","ELEMENT_SET_NO":"999","PERIAPSIS":"561.773","EPHEMERIS_TYPE":"0","NORAD_CAT_ID":"53218","EPOCH":"2023-04-14T04:06:56.676384","MEAN_MOTION_DDOT":"0.0000000000000","MEAN_MOTION_DOT":"0.00001553","BSTAR":"0.00012547000000","LAUNCH_DATE":"2022-07-22","OBJECT_ID":"2022-084AF","REF_FRAME":"TEME","TIME_SYSTEM":"UTC","APOAPSIS":"564.215","PERIOD":"95.919","ARG_OF_PERICENTER":"103.6264","OBJECT_NAME":"STARLINK-4384","SEMIMAJOR_AXIS":"6941.129","TLE_LINE1":"1 53218U 22084AF  23104.17148931  .00001553  00000-0  12547-3 0  9995","RA_OF_ASC_NODE":"166.1646","ECCENTRICITY":"0.00017590","SITE":"AFWTR","INCLINATION":"97.6540","CLASSIFICATION_TYPE":"U","MEAN_ANOMALY":"256.5156","COUNTRY_CODE":"US"},{"EPOCH":"2023-04-14T21:26:43.307520","NORAD_CAT_ID":"53219","EPHEMERIS_TYPE":"0","MEAN_MOTION_DDOT":"0.0000000000000","RCS_SIZE":"LARGE","MEAN_ELEMENT_THEORY":"SGP4","ELEMENT_SET_NO":"999","PERIAPSIS":"562.124","FILE":"3887502","DECAY_DATE":null,"REV_AT_EPOCH":"4032","MEAN_MOTION":"15.01266464","OBJECT_TYPE":"PAYLOAD","CENTER_NAME":"EARTH","TLE_LINE2":"2 53219  97.6553 166.8678 0001250 109.4086 250.7273 15.01266464 40325","GP_ID":"230065510","INCLINATION":"97.6553","SITE":"AFWTR","COUNTRY_CODE":"US","CLASSIFICATION_TYPE":"U","MEAN_ANOMALY":"250.7273","ARG_OF_PERICENTER":"109.4086","SEMIMAJOR_AXIS":"6941.127","OBJECT_NAME":"STARLINK-4373","APOAPSIS":"563.860","PERIOD":"95.919","ECCENTRICITY":"0.00012500","TLE_LINE1":"1 53219U 22084AG  23104.89355680  .00000656  00000-0  55655-4 0  9997","RA_OF_ASC_NODE":"166.8678","OBJECT_ID":"2022-084AG","REF_FRAME":"TEME","TIME_SYSTEM":"UTC","BSTAR":"0.00005565500000","MEAN_MOTION_DOT":"0.00000656","LAUNCH_DATE":"2022-07-22"},{"TIME_SYSTEM":"UTC","REF_FRAME":"TEME","OBJECT_ID":"2022-084AH","LAUNCH_DATE":"2022-07-22","BSTAR":"-0.00008792100000","MEAN_MOTION_DOT":"-0.00001189","MEAN_ANOMALY":"256.9660","CLASSIFICATION_TYPE":"U","COUNTRY_CODE":"US","SITE":"AFWTR","INCLINATION":"97.6575","RA_OF_ASC_NODE":"166.1544","TLE_LINE1":"1 53220U 22084AH  23104.16593544 -.00001189  00000-0 -87921-4 0  9997","ECCENTRICITY":"0.00016780","PERIOD":"95.918","APOAPSIS":"564.130","OBJECT_NAME":"STARLINK-4363","SEMIMAJOR_AXIS":"6941.101","ARG_OF_PERICENTER":"103.1752","MEAN_MOTION":"15.01275035","OBJECT_TYPE":"PAYLOAD","REV_AT_EPOCH":"4072","DECAY_DATE":null,"FILE":"3887333","GP_ID":"230059075","TLE_LINE2":"2 53220  97.6575 166.1544 0001678 103.1752 256.9660 15.01275035 40727","CENTER_NAME":"EARTH","MEAN_MOTION_DDOT":"0.0000000000000","EPHEMERIS_TYPE":"0","NORAD_CAT_ID":"53220","EPOCH":"2023-04-14T03:58:56.822016","PERIAPSIS":"561.801","ELEMENT_SET_NO":"999","MEAN_ELEMENT_THEORY":"SGP4","RCS_SIZE":"LARGE"},{"TIME_SYSTEM":"UTC","OBJECT_ID":"2022-084AJ","REF_FRAME":"TEME","LAUNCH_DATE":"2022-07-22","MEAN_MOTION_DOT":"0.00001609","BSTAR":"0.00012981000000","COUNTRY_CODE":"US","CLASSIFICATION_TYPE":"U","MEAN_ANOMALY":"251.7657","INCLINATION":"97.6554","SITE":"AFWTR","ECCENTRICITY":"0.00014000","TLE_LINE1":"1 53221U 22084AJ  23104.15852958  .00001609  00000-0  12981-3 0  9992","RA_OF_ASC_NODE":"166.1426","ARG_OF_PERICENTER":"108.3719","SEMIMAJOR_AXIS":"6941.137","OBJECT_NAME":"STARLINK-4377","PERIOD":"95.919","APOAPSIS":"563.974","REV_AT_EPOCH":"4020","OBJECT_TYPE":"PAYLOAD","MEAN_MOTION":"15.01263198","FILE":"3887333","DECAY_DATE":null,"GP_ID":"230059326","CENTER_NAME":"EARTH","TLE_LINE2":"2 53221  97.6554 166.1426 0001400 108.3719 251.7657 15.01263198 40206","MEAN_MOTION_DDOT":"0.0000000000000","NORAD_CAT_ID":"53221","EPOCH":"2023-04-14T03:48:16.955712","EPHEMERIS_TYPE":"0","ELEMENT_SET_NO":"999","PERIAPSIS":"562.030","RCS_SIZE":"LARGE","MEAN_ELEMENT_THEORY":"SGP4"},{"COUNTRY_CODE":"US","CLASSIFICATION_TYPE":"U","MEAN_ANOMALY":"254.7510","INCLINATION":"97.6556","SITE":"AFWTR","ECCENTRICITY":"0.00014800","TLE_LINE1":"1 53222U 22084AK  23104.16408405  .00001397  00000-0  11335-3 0  9994","RA_OF_ASC_NODE":"166.1505","ARG_OF_PERICENTER":"105.3878","OBJECT_NAME":"STARLINK-4381","SEMIMAJOR_AXIS":"6941.137","APOAPSIS":"564.029","PERIOD":"95.919","TIME_SYSTEM":"UTC","OBJECT_ID":"2022-084AK","REF_FRAME":"TEME","LAUNCH_DATE":"2022-07-22","BSTAR":"0.00011335000000","MEAN_MOTION_DOT":"0.00001397","MEAN_MOTION_DDOT":"0.0000000000000","NORAD_CAT_ID":"53222","EPOCH":"2023-04-14T03:56:16.861920","EPHEMERIS_TYPE":"0","ELEMENT_SET_NO":"999","PERIAPSIS":"561.974","RCS_SIZE":"LARGE","MEAN_ELEMENT_THEORY":"SGP4","REV_AT_EPOCH":"4020","MEAN_MOTION":"15.01263271","OBJECT_TYPE":"PAYLOAD","FILE":"3887333","DECAY_DATE":null,"GP_ID":"230058074","CENTER_NAME":"EARTH","TLE_LINE2":"2 53222  97.6556 166.1505 0001480 105.3878 254.7510 15.01263271 40201"},{"SITE":"AFWTR","INCLINATION":"97.6554","CLASSIFICATION_TYPE":"U","MEAN_ANOMALY":"259.1871","COUNTRY_CODE":"US","APOAPSIS":"563.840","PERIOD":"95.919","OBJECT_NAME":"STARLINK-4354","SEMIMAJOR_AXIS":"6941.121","ARG_OF_PERICENTER":"100.9491","RA_OF_ASC_NODE":"166.1405","TLE_LINE1":"1 53223U 22084AL  23104.15667642  .00001002  00000-0  82569-4 0  9995","ECCENTRICITY":"0.00012300","REF_FRAME":"TEME","OBJECT_ID":"2022-084AL","TIME_SYSTEM":"UTC","MEAN_MOTION_DOT":"0.00001002","BSTAR":"0.00008256900000","LAUNCH_DATE":"2022-07-22","EPHEMERIS_TYPE":"0","EPOCH":"2023-04-14T03:45:36.842688","NORAD_CAT_ID":"53223","MEAN_MOTION_DDOT":"0.0000000000000","MEAN_ELEMENT_THEORY":"SGP4","RCS_SIZE":"LARGE","PERIAPSIS":"562.132","ELEMENT_SET_NO":"999","DECAY_DATE":null,"FILE":"3887333","MEAN_MOTION":"15.01268366","OBJECT_TYPE":"PAYLOAD","REV_AT_EPOCH":"4020","TLE_LINE2":"2 53223  97.6554 166.1405 0001230 100.9491 259.1871 15.01268366 40203","CENTER_NAME":"EARTH","GP_ID":"230058324"},{"OBJECT_ID":"2022-084AM","REF_FRAME":"TEME","TIME_SYSTEM":"UTC","BSTAR":"0.00025829000000","MEAN_MOTION_DOT":"0.00003261","LAUNCH_DATE":"2022-07-22","INCLINATION":"97.6554","SITE":"AFWTR","COUNTRY_CODE":"US","MEAN_ANOMALY":"251.1117","CLASSIFICATION_TYPE":"U","ARG_OF_PERICENTER":"109.0272","SEMIMAJOR_AXIS":"6941.124","OBJECT_NAME":"STARLINK-4356","PERIOD":"95.919","APOAPSIS":"564.047","ECCENTRICITY":"0.00015240","TLE_LINE1":"1 53224U 22084AM  23104.16223498  .00003261  00000-0  25829-3 0  9998","RA_OF_ASC_NODE":"166.1479","FILE":"3887333","DECAY_DATE":null,"REV_AT_EPOCH":"4020","OBJECT_TYPE":"PAYLOAD","MEAN_MOTION":"15.01267343","CENTER_NAME":"EARTH","TLE_LINE2":"2 53224  97.6554 166.1479 0001524 109.0272 251.1117 15.01267343 40207","GP_ID":"230059575","NORAD_CAT_ID":"53224","EPOCH":"2023-04-14T03:53:37.102272","EPHEMERIS_TYPE":"0","MEAN_MOTION_DDOT":"0.0000000000000","RCS_SIZE":"LARGE","MEAN_ELEMENT_THEORY":"SGP4","ELEMENT_SET_NO":"999","PERIAPSIS":"561.931"},{"OBJECT_ID":"2022-084AN","REF_FRAME":"TEME","TIME_SYSTEM":"UTC","BSTAR":"0.00044022000000","MEAN_MOTION_DOT":"0.00005600","LAUNCH_DATE":"2022-07-22","INCLINATION":"97.6557","SITE":"AFWTR","COUNTRY_CODE":"US","MEAN_ANOMALY":"208.2406","CLASSIFICATION_TYPE":"U","ARG_OF_PERICENTER":"151.8858","SEMIMAJOR_AXIS":"6941.142","OBJECT_NAME":"STARLINK-4358","PERIOD":"95.919","APOAPSIS":"563.517","ECCENTRICITY":"0.00007340","TLE_LINE1":"1 53225U 22084AN  23104.15298424  .00005600  00000-0  44022-3 0  9994","RA_OF_ASC_NODE":"166.1367","FILE":"3887333","DECAY_DATE":null,"REV_AT_EPOCH":"4020","MEAN_MOTION":"15.01261442","OBJECT_TYPE":"PAYLOAD","CENTER_NAME":"EARTH","TLE_LINE2":"2 53225  97.6557 166.1367 0000734 151.8858 208.2406 15.01261442 40202","GP_ID":"230059826","EPOCH":"2023-04-14T03:40:17.838336","NORAD_CAT_ID":"53225","EPHEMERIS_TYPE":"0","MEAN_MOTION_DDOT":"0.0000000000000","RCS_SIZE":"LARGE","MEAN_ELEMENT_THEORY":"SGP4","ELEMENT_SET_NO":"999","PERIAPSIS":"562.498"},{"REV_AT_EPOCH":"4032","MEAN_MOTION":"15.01262939","OBJECT_TYPE":"PAYLOAD","FILE":"3887499","DECAY_DATE":null,"GP_ID":"230065669","CENTER_NAME":"EARTH","TLE_LINE2":"2 53226  97.6551 166.8633 0001291 103.1691 256.9677 15.01262939 40329","MEAN_MOTION_DDOT":"0.0000000000000","NORAD_CAT_ID":"53226","EPOCH":"2023-04-14T21:21:44.852544","EPHEMERIS_TYPE":"0","ELEMENT_SET_NO":"999","PERIAPSIS":"562.107","RCS_SIZE":"LARGE","MEAN_ELEMENT_THEORY":"SGP4","TIME_SYSTEM":"UTC","OBJECT_ID":"2022-084AP","REF_FRAME":"TEME","LAUNCH_DATE":"2022-07-22","MEAN_MOTION_DOT":"0.00000298","BSTAR":"0.00002780900000","COUNTRY_CODE":"US","CLASSIFICATION_TYPE":"U","MEAN_ANOMALY":"256.9677","INCLINATION":"97.6551","SITE":"AFWTR","ECCENTRICITY":"0.00012910","TLE_LINE1":"1 53226U 22084AP  23104.89010246  .00000298  00000-0  27809-4 0  9993","RA_OF_ASC_NODE":"166.8633","ARG_OF_PERICENTER":"103.1691","OBJECT_NAME":"STARLINK-4359","SEMIMAJOR_AXIS":"6941.138","PERIOD":"95.919","APOAPSIS":"563.899"}];
